LAGEOS 1                
1 08820U 76039A   26087.43940382 -.00000002  00000+0  00000+0 0  9990
2 08820 109.8125 151.7023 0044667 319.5662  61.3227  6.38664795907982
